COSMOS 2251             
1 22675U 93036A   26061.73690845  .00000129  00000+0  56108-4 0  9995
2 22675  74.0405 169.7191 0025730 236.4629 123.4065 14.33232045709191
COSMOS 2251 DEB         
1 33757U 93036E   26061.78727234  .00000112  00000+0  50784-4 0  9992
2 33757  74.0375 177.4788 0014740 180.1769 298.0819 14.32604292891427
COSMOS 2251 DEB         
1 33758U 93036F   26062.03065479  .00003767  00000+0  93275-3 0  9998
2 33758  74.0265  63.7136 0013767 119.6027 304.1120 14.52249265894707
COSMOS 2251 DEB         
1 33760U 93036H   26062.17624580  .00000285  00000+0  10761-3 0  9991
2 33760  74.0317 133.8321 0021194 219.1478 171.3754 14.35731553892793
COSMOS 2251 DEB         
1 33761U 93036J   26062.15275275  .00001154  00000+0  35283-3 0  9995
2 33761  74.0341 102.9390 0022248 172.3918 244.1552 14.42815548893942
COSMOS 2251 DEB         
1 33762U 93036K   26061.97073094  .00000153  00000+0  64441-4 0  9997
2 33762  74.0426 163.3469 0015881 213.5050 268.9870 14.33693517891973
COSMOS 2251 DEB         
1 33764U 93036M   26061.89007125  .00000861  00000+0  28258-3 0  9993
2 33764  74.0327 124.6389 0020759  66.9980  47.5433 14.39697397893107
COSMOS 2251 DEB         
1 33765U 93036N   26061.93427897  .00058828  00000+0  29060-2 0  9998
2 33765  74.0019   6.5891 0057670  76.2906 284.4700 15.16097459908314
COSMOS 2251 DEB         
1 33766U 93036P   26062.18200046  .00001639  00000+0  56790-3 0  9991
2 33766  74.1884 348.8612 0063863 171.1427 189.0871 14.35239444888995
COSMOS 2251 DEB         
1 33768U 93036R   26062.17858340  .00000491  00000+0  45225-3 0  9994
2 33768  74.0665  90.0294 0368738 230.2212 200.8719 13.58544154843886
COSMOS 2251 DEB         
1 33779U 93036U   26061.96465125  .00007107  00000+0  11191-2 0  9992
2 33779  74.0458  14.8322 0012333  17.1160  61.1215 14.72602799897082
COSMOS 2251 DEB         
1 33782U 93036X   26061.60076373  .00001194  00000+0  38108-3 0  9998
2 33782  74.0325 129.8271 0020275 185.0304 292.0459 14.40693148892766
COSMOS 2251 DEB         
1 33785U 93036AA  26061.98539865  .00010353  00000+0  16276-2 0  9990
2 33785  73.8635 262.3285 0020291 189.6638 289.7065 14.72507750896876
COSMOS 2251 DEB         
1 33789U 93036AE  26062.12363993  .00001007  00000+0  67659-3 0  9996
2 33789  74.0647 310.9724 0238793  47.4936 102.7871 13.88938056862116
COSMOS 2251 DEB         
1 33791U 93036AG  26061.95712921  .00002851  00000+0  84378-3 0  9993
2 33791  74.1715 249.7949 0028868  61.7462  98.4771 14.43611291892098
COSMOS 2251 DEB         
1 33792U 93036AH  26061.87294748  .00000776  00000+0  76573-3 0  9999
2 33792  73.8994 217.3432 0429306 268.0264 214.0105 13.45991599835206
