[{"OBJECT_NAME":"COSMOS 2251","OBJECT_ID":"1993-036A","EPOCH":"2026-03-02T17:41:08.890080","MEAN_MOTION":14.33232045,"ECCENTRICITY":0.00257309,"INCLINATION":74.0405,"RA_OF_ASC_NODE":169.7191,"ARG_OF_PERICENTER":236.4629,"MEAN_ANOMALY":123.4065,"EPHEMERIS_TYPE":0,"CLASSIFICATION_TYPE":"U","NORAD_CAT_ID":22675,"ELEMENT_SET_NO":999,"REV_AT_EPOCH":70919,"BSTAR":5.6108472e-5,"MEAN_MOTION_DOT":1.29e-6,"MEAN_MOTION_DDOT":0},{"OBJECT_NAME":"COSMOS 2251 DEB","OBJECT_ID":"1993-036E","EPOCH":"2026-03-02T18:53:40.330176","MEAN_MOTION":14.32604292,"ECCENTRICITY":0.00147402,"INCLINATION":74.0375,"RA_OF_ASC_NODE":177.4788,"ARG_OF_PERICENTER":180.1769,"MEAN_ANOMALY":298.0819,"EPHEMERIS_TYPE":0,"CLASSIFICATION_TYPE":"U","NORAD_CAT_ID":33757,"ELEMENT_SET_NO":999,"REV_AT_EPOCH":89142,"BSTAR":5.0783938e-5,"MEAN_MOTION_DOT":1.12e-6,"MEAN_MOTION_DDOT":0},{"OBJECT_NAME":"COSMOS 2251 DEB","OBJECT_ID":"1993-036F","EPOCH":"2026-03-03T00:44:08.573856","MEAN_MOTION":14.52249265,"ECCENTRICITY":0.0013767,"INCLINATION":74.0265,"RA_OF_ASC_NODE":63.7136,"ARG_OF_PERICENTER":119.6027,"MEAN_ANOMALY":304.112,"EPHEMERIS_TYPE":0,"CLASSIFICATION_TYPE":"U","NORAD_CAT_ID":33758,"ELEMENT_SET_NO":999,"REV_AT_EPOCH":89470,"BSTAR":0.00093275,"MEAN_MOTION_DOT":3.767e-5,"MEAN_MOTION_DDOT":0},{"OBJECT_NAME":"COSMOS 2251 DEB","OBJECT_ID":"1993-036H","EPOCH":"2026-03-03T04:13:47.637120","MEAN_MOTION":14.35731553,"ECCENTRICITY":0.0021194,"INCLINATION":74.0317,"RA_OF_ASC_NODE":133.8321,"ARG_OF_PERICENTER":219.1478,"MEAN_ANOMALY":171.3754,"EPHEMERIS_TYPE":0,"CLASSIFICATION_TYPE":"U","NORAD_CAT_ID":33760,"ELEMENT_SET_NO":999,"REV_AT_EPOCH":89279,"BSTAR":0.00010761,"MEAN_MOTION_DOT":2.85e-6,"MEAN_MOTION_DDOT":0},{"OBJECT_NAME":"COSMOS 2251 DEB","OBJECT_ID":"1993-036J","EPOCH":"2026-03-03T03:39:57.837600","MEAN_MOTION":14.42815548,"ECCENTRICITY":0.0022248,"INCLINATION":74.0341,"RA_OF_ASC_NODE":102.939,"ARG_OF_PERICENTER":172.3918,"MEAN_ANOMALY":244.1552,"EPHEMERIS_TYPE":0,"CLASSIFICATION_TYPE":"U","NORAD_CAT_ID":33761,"ELEMENT_SET_NO":999,"REV_AT_EPOCH":89394,"BSTAR":0.00035283,"MEAN_MOTION_DOT":1.154e-5,"MEAN_MOTION_DDOT":0},{"OBJECT_NAME":"COSMOS 2251 DEB","OBJECT_ID":"1993-036K","EPOCH":"2026-03-02T23:17:51.153216","MEAN_MOTION":14.33693517,"ECCENTRICITY":0.0015881,"INCLINATION":74.0426,"RA_OF_ASC_NODE":163.3469,"ARG_OF_PERICENTER":213.505,"MEAN_ANOMALY":268.987,"EPHEMERIS_TYPE":0,"CLASSIFICATION_TYPE":"U","NORAD_CAT_ID":33762,"ELEMENT_SET_NO":999,"REV_AT_EPOCH":89197,"BSTAR":6.4441e-5,"MEAN_MOTION_DOT":1.53e-6,"MEAN_MOTION_DDOT":0},{"OBJECT_NAME":"COSMOS 2251 DEB","OBJECT_ID":"1993-036M","EPOCH":"2026-03-02T21:21:42.156000","MEAN_MOTION":14.39697397,"ECCENTRICITY":0.0020759,"INCLINATION":74.0327,"RA_OF_ASC_NODE":124.6389,"ARG_OF_PERICENTER":66.998,"MEAN_ANOMALY":47.5433,"EPHEMERIS_TYPE":0,"CLASSIFICATION_TYPE":"U","NORAD_CAT_ID":33764,"ELEMENT_SET_NO":999,"REV_AT_EPOCH":89310,"BSTAR":0.00028258,"MEAN_MOTION_DOT":8.61e-6,"MEAN_MOTION_DDOT":0},{"OBJECT_NAME":"COSMOS 2251 DEB","OBJECT_ID":"1993-036N","EPOCH":"2026-03-02T22:25:21.703008","MEAN_MOTION":15.16097459,"ECCENTRICITY":0.005767,"INCLINATION":74.0019,"RA_OF_ASC_NODE":6.5891,"ARG_OF_PERICENTER":76.2906,"MEAN_ANOMALY":284.47,"EPHEMERIS_TYPE":0,"CLASSIFICATION_TYPE":"U","NORAD_CAT_ID":33765,"ELEMENT_SET_NO":999,"REV_AT_EPOCH":90831,"BSTAR":0.002906,"MEAN_MOTION_DOT":0.00058828,"MEAN_MOTION_DDOT":0},{"OBJECT_NAME":"COSMOS 2251 DEB","OBJECT_ID":"1993-036P","EPOCH":"2026-03-03T04:22:04.839744","MEAN_MOTION":14.35239444,"ECCENTRICITY":0.0063863,"INCLINATION":74.1884,"RA_OF_ASC_NODE":348.8612,"ARG_OF_PERICENTER":171.1427,"MEAN_ANOMALY":189.0871,"EPHEMERIS_TYPE":0,"CLASSIFICATION_TYPE":"U","NORAD_CAT_ID":33766,"ELEMENT_SET_NO":999,"REV_AT_EPOCH":88899,"BSTAR":0.0005679,"MEAN_MOTION_DOT":1.639e-5,"MEAN_MOTION_DDOT":0},{"OBJECT_NAME":"COSMOS 2251 DEB","OBJECT_ID":"1993-036R","EPOCH":"2026-03-03T04:17:09.605760","MEAN_MOTION":13.58544154,"ECCENTRICITY":0.0368738,"INCLINATION":74.0665,"RA_OF_ASC_NODE":90.0294,"ARG_OF_PERICENTER":230.2212,"MEAN_ANOMALY":200.8719,"EPHEMERIS_TYPE":0,"CLASSIFICATION_TYPE":"U","NORAD_CAT_ID":33768,"ELEMENT_SET_NO":999,"REV_AT_EPOCH":84388,"BSTAR":0.00045225,"MEAN_MOTION_DOT":4.91e-6,"MEAN_MOTION_DDOT":0},{"OBJECT_NAME":"COSMOS 2251 DEB","OBJECT_ID":"1993-036U","EPOCH":"2026-03-02T23:09:05.868000","MEAN_MOTION":14.72602799,"ECCENTRICITY":0.0012333,"INCLINATION":74.0458,"RA_OF_ASC_NODE":14.8322,"ARG_OF_PERICENTER":17.116,"MEAN_ANOMALY":61.1215,"EPHEMERIS_TYPE":0,"CLASSIFICATION_TYPE":"U","NORAD_CAT_ID":33779,"ELEMENT_SET_NO":999,"REV_AT_EPOCH":89708,"BSTAR":0.0011191,"MEAN_MOTION_DOT":7.107e-5,"MEAN_MOTION_DDOT":0},{"OBJECT_NAME":"COSMOS 2251 DEB","OBJECT_ID":"1993-036X","EPOCH":"2026-03-02T14:25:05.986272","MEAN_MOTION":14.40693148,"ECCENTRICITY":0.0020275,"INCLINATION":74.0325,"RA_OF_ASC_NODE":129.8271,"ARG_OF_PERICENTER":185.0304,"MEAN_ANOMALY":292.0459,"EPHEMERIS_TYPE":0,"CLASSIFICATION_TYPE":"U","NORAD_CAT_ID":33782,"ELEMENT_SET_NO":999,"REV_AT_EPOCH":89276,"BSTAR":0.00038108,"MEAN_MOTION_DOT":1.194e-5,"MEAN_MOTION_DDOT":0},{"OBJECT_NAME":"COSMOS 2251 DEB","OBJECT_ID":"1993-036AA","EPOCH":"2026-03-02T23:38:58.443360","MEAN_MOTION":14.7250775,"ECCENTRICITY":0.0020291,"INCLINATION":73.8635,"RA_OF_ASC_NODE":262.3285,"ARG_OF_PERICENTER":189.6638,"MEAN_ANOMALY":289.7065,"EPHEMERIS_TYPE":0,"CLASSIFICATION_TYPE":"U","NORAD_CAT_ID":33785,"ELEMENT_SET_NO":999,"REV_AT_EPOCH":89687,"BSTAR":0.0016276,"MEAN_MOTION_DOT":0.00010353,"MEAN_MOTION_DDOT":0},{"OBJECT_NAME":"COSMOS 2251 DEB","OBJECT_ID":"1993-036AE","EPOCH":"2026-03-03T02:58:02.489952","MEAN_MOTION":13.88938056,"ECCENTRICITY":0.0238793,"INCLINATION":74.0647,"RA_OF_ASC_NODE":310.9724,"ARG_OF_PERICENTER":47.4936,"MEAN_ANOMALY":102.7871,"EPHEMERIS_TYPE":0,"CLASSIFICATION_TYPE":"U","NORAD_CAT_ID":33789,"ELEMENT_SET_NO":999,"REV_AT_EPOCH":86211,"BSTAR":0.00067659,"MEAN_MOTION_DOT":1.007e-5,"MEAN_MOTION_DDOT":0},{"OBJECT_NAME":"COSMOS 2251 DEB","OBJECT_ID":"1993-036AG","EPOCH":"2026-03-02T22:58:15.963744","MEAN_MOTION":14.43611291,"ECCENTRICITY":0.0028868,"INCLINATION":74.1715,"RA_OF_ASC_NODE":249.7949,"ARG_OF_PERICENTER":61.7462,"MEAN_ANOMALY":98.4771,"EPHEMERIS_TYPE":0,"CLASSIFICATION_TYPE":"U","NORAD_CAT_ID":33791,"ELEMENT_SET_NO":999,"REV_AT_EPOCH":89209,"BSTAR":0.00084378,"MEAN_MOTION_DOT":2.851e-5,"MEAN_MOTION_DDOT":0},{"OBJECT_NAME":"COSMOS 2251 DEB","OBJECT_ID":"1993-036AH","EPOCH":"2026-03-02T20:57:02.662272","MEAN_MOTION":13.45991599,"ECCENTRICITY":0.0429306,"INCLINATION":73.8994,"RA_OF_ASC_NODE":217.3432,"ARG_OF_PERICENTER":268.0264,"MEAN_ANOMALY":214.0105,"EPHEMERIS_TYPE":0,"CLASSIFICATION_TYPE":"U","NORAD_CAT_ID":33792,"ELEMENT_SET_NO":999,"REV_AT_EPOCH":83520,"BSTAR":0.00076573,"MEAN_MOTION_DOT":7.76e-6,"MEAN_MOTION_DDOT":0}]
